[{"OBJECT_NAME":"STARLINK-6219","OBJECT_ID":"2023-083S","EPOCH":"2026-03-09T08:40:43.379616","MEAN_MOTION":15.02536913,"ECCENTRICITY":0.00011981,"INCLINATION":43.0042,"RA_OF_ASC_NODE":83.3325,"ARG_OF_PERICENTER":266.4693,"MEAN_ANOMALY":93.6012,"EPHEMERIS_TYPE":0,"CLASSIFICATION_TYPE":"U","NORAD_CAT_ID":56892,"ELEMENT_SET_NO":999,"REV_AT_EPOCH":15162,"BSTAR":-3.7534365e-5,"MEAN_MOTION_DOT":-7.11e-6,"MEAN_MOTION_DDOT":0},{"OBJECT_NAME":"OBJECT R","OBJECT_ID":"2021-022R","EPOCH":"2026-03-09T22:54:37.456416","MEAN_MOTION":15.08912229,"ECCENTRICITY":0.00182027,"INCLINATION":97.3728,"RA_OF_ASC_NODE":308.5333,"ARG_OF_PERICENTER":149.1845,"MEAN_ANOMALY":211.0456,"EPHEMERIS_TYPE":0,"CLASSIFICATION_TYPE":"U","NORAD_CAT_ID":47947,"ELEMENT_SET_NO":999,"REV_AT_EPOCH":27304,"BSTAR":2.1057411e-5,"MEAN_MOTION_DOT":2.72e-6,"MEAN_MOTION_DDOT":0}]
